[{"OBJECT_NAME":"STARLINK-32528","OBJECT_ID":"2024-196T","EPOCH":"2026-03-09T12:09:23.160384","MEAN_MOTION":15.30169385,"ECCENTRICITY":0.00012967,"INCLINATION":53.1604,"RA_OF_ASC_NODE":102.5375,"ARG_OF_PERICENTER":74.5088,"MEAN_ANOMALY":285.6056,"EPHEMERIS_TYPE":0,"CLASSIFICATION_TYPE":"U","NORAD_CAT_ID":61724,"ELEMENT_SET_NO":999,"REV_AT_EPOCH":7592,"BSTAR":-4.2081254e-5,"MEAN_MOTION_DOT":-1.604e-5,"MEAN_MOTION_DDOT":0},{"OBJECT_NAME":"FENGYUN 1C DEB","OBJECT_ID":"1999-025AJJ","EPOCH":"2026-03-09T18:40:58.380672","MEAN_MOTION":15.18672988,"ECCENTRICITY":0.00638575,"INCLINATION":98.7226,"RA_OF_ASC_NODE":259.4919,"ARG_OF_PERICENTER":168.3626,"MEAN_ANOMALY":191.9098,"EPHEMERIS_TYPE":0,"CLASSIFICATION_TYPE":"U","NORAD_CAT_ID":30520,"ELEMENT_SET_NO":999,"REV_AT_EPOCH":2360,"BSTAR":0.0014000942,"MEAN_MOTION_DOT":0.0003064,"MEAN_MOTION_DDOT":0}]
